[{"OBJECT_NAME":"HULIANWANG DIGUI-33","OBJECT_ID":"2025-121D","EPOCH":"2026-03-03T10:52:52.800096","MEAN_MOTION":13.24425299,"ECCENTRICITY":0.0002087,"INCLINATION":86.4963,"RA_OF_ASC_NODE":49.2652,"ARG_OF_PERICENTER":78.9197,"MEAN_ANOMALY":281.2172,"EPHEMERIS_TYPE":0,"CLASSIFICATION_TYPE":"U","NORAD_CAT_ID":64286,"ELEMENT_SET_NO":999,"REV_AT_EPOCH":3616,"BSTAR":9.3475e-5,"MEAN_MOTION_DOT":5.5e-7,"MEAN_MOTION_DDOT":0},{"OBJECT_NAME":"HULIANWANG DIGUI-34","OBJECT_ID":"2025-121E","EPOCH":"2026-03-03T10:42:04.362048","MEAN_MOTION":13.24424193,"ECCENTRICITY":0.0002241,"INCLINATION":86.4941,"RA_OF_ASC_NODE":49.1999,"ARG_OF_PERICENTER":75.2423,"MEAN_ANOMALY":284.8959,"EPHEMERIS_TYPE":0,"CLASSIFICATION_TYPE":"U","NORAD_CAT_ID":64287,"ELEMENT_SET_NO":999,"REV_AT_EPOCH":3616,"BSTAR":0.00010569,"MEAN_MOTION_DOT":6.0e-7,"MEAN_MOTION_DDOT":0},{"OBJECT_NAME":"HULIANWANG DIGUI-35","OBJECT_ID":"2025-159A","EPOCH":"2026-03-03T11:42:33.229440","MEAN_MOTION":13.24416938,"ECCENTRICITY":0.0001305,"INCLINATION":86.4988,"RA_OF_ASC_NODE":318.1588,"ARG_OF_PERICENTER":70.8927,"MEAN_ANOMALY":289.2348,"EPHEMERIS_TYPE":0,"CLASSIFICATION_TYPE":"U","NORAD_CAT_ID":64956,"ELEMENT_SET_NO":999,"REV_AT_EPOCH":2913,"BSTAR":0.00014425,"MEAN_MOTION_DOT":7.7e-7,"MEAN_MOTION_DDOT":0},{"OBJECT_NAME":"HULIANWANG DIGUI-36","OBJECT_ID":"2025-159B","EPOCH":"2026-03-03T11:31:24.165120","MEAN_MOTION":13.24419528,"ECCENTRICITY":0.0001389,"INCLINATION":86.5007,"RA_OF_ASC_NODE":318.1988,"ARG_OF_PERICENTER":70.2401,"MEAN_ANOMALY":289.8882,"EPHEMERIS_TYPE":0,"CLASSIFICATION_TYPE":"U","NORAD_CAT_ID":64957,"ELEMENT_SET_NO":999,"REV_AT_EPOCH":2913,"BSTAR":9.8693e-5,"MEAN_MOTION_DOT":5.7e-7,"MEAN_MOTION_DDOT":0},{"OBJECT_NAME":"HULIANWANG DIGUI-37","OBJECT_ID":"2025-159C","EPOCH":"2026-03-03T11:20:32.487072","MEAN_MOTION":13.24419168,"ECCENTRICITY":0.0001466,"INCLINATION":86.4949,"RA_OF_ASC_NODE":318.0645,"ARG_OF_PERICENTER":68.2756,"MEAN_ANOMALY":291.8534,"EPHEMERIS_TYPE":0,"CLASSIFICATION_TYPE":"U","NORAD_CAT_ID":64958,"ELEMENT_SET_NO":999,"REV_AT_EPOCH":2913,"BSTAR":9.488e-5,"MEAN_MOTION_DOT":5.5e-7,"MEAN_MOTION_DDOT":0},{"OBJECT_NAME":"HULIANWANG DIGUI-38","OBJECT_ID":"2025-159D","EPOCH":"2026-03-03T11:09:41.468256","MEAN_MOTION":13.24419362,"ECCENTRICITY":0.0001444,"INCLINATION":86.5008,"RA_OF_ASC_NODE":318.1917,"ARG_OF_PERICENTER":70.6947,"MEAN_ANOMALY":289.4343,"EPHEMERIS_TYPE":0,"CLASSIFICATION_TYPE":"U","NORAD_CAT_ID":64959,"ELEMENT_SET_NO":999,"REV_AT_EPOCH":2913,"BSTAR":8.5573e-5,"MEAN_MOTION_DOT":5.1e-7,"MEAN_MOTION_DDOT":0},{"OBJECT_NAME":"HULIANWANG DIGUI-39","OBJECT_ID":"2025-159E","EPOCH":"2026-03-03T10:58:47.671680","MEAN_MOTION":13.24419519,"ECCENTRICITY":0.000145,"INCLINATION":86.4984,"RA_OF_ASC_NODE":318.1345,"ARG_OF_PERICENTER":71.944,"MEAN_ANOMALY":288.1852,"EPHEMERIS_TYPE":0,"CLASSIFICATION_TYPE":"U","NORAD_CAT_ID":64960,"ELEMENT_SET_NO":999,"REV_AT_EPOCH":2913,"BSTAR":8.4598e-5,"MEAN_MOTION_DOT":5.1e-7,"MEAN_MOTION_DDOT":0},{"OBJECT_NAME":"HULIANWANG DIGUI-40","OBJECT_ID":"2025-162A","EPOCH":"2026-03-03T11:08:16.798848","MEAN_MOTION":13.29332051,"ECCENTRICITY":0.0001008,"INCLINATION":49.9992,"RA_OF_ASC_NODE":285.1594,"ARG_OF_PERICENTER":67.616,"MEAN_ANOMALY":292.4819,"EPHEMERIS_TYPE":0,"CLASSIFICATION_TYPE":"U","NORAD_CAT_ID":65043,"ELEMENT_SET_NO":999,"REV_AT_EPOCH":2928,"BSTAR":0.00011745,"MEAN_MOTION_DOT":-7.0e-7,"MEAN_MOTION_DDOT":0},{"OBJECT_NAME":"HULIANWANG DIGUI-41","OBJECT_ID":"2025-162B","EPOCH":"2026-03-03T10:56:15.197280","MEAN_MOTION":13.29332405,"ECCENTRICITY":0.0001052,"INCLINATION":50.0002,"RA_OF_ASC_NODE":285.1331,"ARG_OF_PERICENTER":67.5636,"MEAN_ANOMALY":292.5347,"EPHEMERIS_TYPE":0,"CLASSIFICATION_TYPE":"U","NORAD_CAT_ID":65044,"ELEMENT_SET_NO":999,"REV_AT_EPOCH":2929,"BSTAR":0.00012379,"MEAN_MOTION_DOT":-6.7e-7,"MEAN_MOTION_DDOT":0},{"OBJECT_NAME":"HULIANWANG DIGUI-42","OBJECT_ID":"2025-162C","EPOCH":"2026-03-03T10:44:11.008896","MEAN_MOTION":13.29331738,"ECCENTRICITY":9.9e-5,"INCLINATION":49.9967,"RA_OF_ASC_NODE":285.0283,"ARG_OF_PERICENTER":68.7908,"MEAN_ANOMALY":291.307,"EPHEMERIS_TYPE":0,"CLASSIFICATION_TYPE":"U","NORAD_CAT_ID":65045,"ELEMENT_SET_NO":999,"REV_AT_EPOCH":2929,"BSTAR":0.00011004,"MEAN_MOTION_DOT":-7.3e-7,"MEAN_MOTION_DDOT":0},{"OBJECT_NAME":"HULIANWANG DIGUI-43","OBJECT_ID":"2025-162D","EPOCH":"2026-03-03T10:32:07.577376","MEAN_MOTION":13.29332785,"ECCENTRICITY":9.85e-5,"INCLINATION":49.9984,"RA_OF_ASC_NODE":285.0164,"ARG_OF_PERICENTER":67.6686,"MEAN_ANOMALY":292.429,"EPHEMERIS_TYPE":0,"CLASSIFICATION_TYPE":"U","NORAD_CAT_ID":65046,"ELEMENT_SET_NO":999,"REV_AT_EPOCH":2929,"BSTAR":0.00012098,"MEAN_MOTION_DOT":-6.8e-7,"MEAN_MOTION_DDOT":0},{"OBJECT_NAME":"HULIANWANG DIGUI-44","OBJECT_ID":"2025-162E","EPOCH":"2026-03-03T10:19:41.526336","MEAN_MOTION":13.29340369,"ECCENTRICITY":7.87e-5,"INCLINATION":50.0011,"RA_OF_ASC_NODE":285.0189,"ARG_OF_PERICENTER":346.7882,"MEAN_ANOMALY":13.297,"EPHEMERIS_TYPE":0,"CLASSIFICATION_TYPE":"U","NORAD_CAT_ID":65047,"ELEMENT_SET_NO":999,"REV_AT_EPOCH":2930,"BSTAR":0.00011521,"MEAN_MOTION_DOT":-7.1e-7,"MEAN_MOTION_DDOT":0},{"OBJECT_NAME":"HULIANWANG DIGUI-45","OBJECT_ID":"2025-162F","EPOCH":"2026-03-03T10:08:07.025856","MEAN_MOTION":13.29332706,"ECCENTRICITY":0.0001042,"INCLINATION":50.0041,"RA_OF_ASC_NODE":285.0303,"ARG_OF_PERICENTER":67.5575,"MEAN_ANOMALY":292.5407,"EPHEMERIS_TYPE":0,"CLASSIFICATION_TYPE":"U","NORAD_CAT_ID":65048,"ELEMENT_SET_NO":999,"REV_AT_EPOCH":2929,"BSTAR":0.0001213,"MEAN_MOTION_DOT":-6.8e-7,"MEAN_MOTION_DDOT":0},{"OBJECT_NAME":"HULIANWANG DIGUI-46","OBJECT_ID":"2025-162G","EPOCH":"2026-03-03T09:56:05.089920","MEAN_MOTION":13.29332662,"ECCENTRICITY":0.000104,"INCLINATION":50.0059,"RA_OF_ASC_NODE":285.0194,"ARG_OF_PERICENTER":69.7228,"MEAN_ANOMALY":290.3756,"EPHEMERIS_TYPE":0,"CLASSIFICATION_TYPE":"U","NORAD_CAT_ID":65049,"ELEMENT_SET_NO":999,"REV_AT_EPOCH":2929,"BSTAR":0.00012418,"MEAN_MOTION_DOT":-6.6e-7,"MEAN_MOTION_DDOT":0},{"OBJECT_NAME":"HULIANWANG DIGUI-47","OBJECT_ID":"2025-162H","EPOCH":"2026-03-03T09:44:03.100416","MEAN_MOTION":13.29332548,"ECCENTRICITY":0.0001019,"INCLINATION":50.0024,"RA_OF_ASC_NODE":284.9143,"ARG_OF_PERICENTER":70.6975,"MEAN_ANOMALY":289.4007,"EPHEMERIS_TYPE":0,"CLASSIFICATION_TYPE":"U","NORAD_CAT_ID":65050,"ELEMENT_SET_NO":999,"REV_AT_EPOCH":2929,"BSTAR":0.00012692,"MEAN_MOTION_DOT":-6.5e-7,"MEAN_MOTION_DDOT":0},{"OBJECT_NAME":"HULIANWANG DIGUI-48","OBJECT_ID":"2025-162J","EPOCH":"2026-03-03T11:20:18.660480","MEAN_MOTION":13.29332018,"ECCENTRICITY":0.0001008,"INCLINATION":50.0034,"RA_OF_ASC_NODE":284.6183,"ARG_OF_PERICENTER":69.0812,"MEAN_ANOMALY":291.0168,"EPHEMERIS_TYPE":0,"CLASSIFICATION_TYPE":"U","NORAD_CAT_ID":65051,"ELEMENT_SET_NO":999,"REV_AT_EPOCH":2930,"BSTAR":0.00010899,"MEAN_MOTION_DOT":-7.3e-7,"MEAN_MOTION_DDOT":0}]
