HULIANWANG DIGUI-33     
1 64286U 25121D   26062.45338889  .00000055  00000+0  93475-4 0  9992
2 64286  86.4963  49.2652 0002087  78.9197 281.2172 13.24425299 36160
HULIANWANG DIGUI-34     
1 64287U 25121E   26062.44588382  .00000060  00000+0  10569-3 0  9995
2 64287  86.4941  49.1999 0002241  75.2423 284.8959 13.24424193 36168
HULIANWANG DIGUI-35     
1 64956U 25159A   26062.48788460  .00000077  00000+0  14425-3 0  9995
2 64956  86.4988 318.1588 0001305  70.8927 289.2348 13.24416938 29133
HULIANWANG DIGUI-36     
1 64957U 25159B   26062.48014080  .00000057  00000+0  98693-4 0  9994
2 64957  86.5007 318.1988 0001389  70.2401 289.8882 13.24419528 29131
HULIANWANG DIGUI-37     
1 64958U 25159C   26062.47259823  .00000055  00000+0  94880-4 0  9992
2 64958  86.4949 318.0645 0001466  68.2756 291.8534 13.24419168 29138
HULIANWANG DIGUI-38     
1 64959U 25159D   26062.46506329  .00000051  00000+0  85573-4 0  9993
2 64959  86.5008 318.1917 0001444  70.6947 289.4343 13.24419362 29131
HULIANWANG DIGUI-39     
1 64960U 25159E   26062.45749620  .00000051  00000+0  84598-4 0  9993
2 64960  86.4984 318.1345 0001450  71.9440 288.1852 13.24419519 29134
HULIANWANG DIGUI-40     
1 65043U 25162A   26062.46408332 -.00000070  00000+0  11745-3 0  9998
2 65043  49.9992 285.1594 0001008  67.6160 292.4819 13.29332051 29286
HULIANWANG DIGUI-41     
1 65044U 25162B   26062.45573145 -.00000067  00000+0  12379-3 0  9993
2 65044  50.0002 285.1331 0001052  67.5636 292.5347 13.29332405 29298
HULIANWANG DIGUI-42     
1 65045U 25162C   26062.44734964 -.00000073  00000+0  11004-3 0  9992
2 65045  49.9967 285.0283 0000990  68.7908 291.3070 13.29331738 29294
HULIANWANG DIGUI-43     
1 65046U 25162D   26062.43897659 -.00000068  00000+0  12098-3 0  9991
2 65046  49.9984 285.0164 0000985  67.6686 292.4290 13.29332785 29296
HULIANWANG DIGUI-44     
1 65047U 25162E   26062.43034174 -.00000071  00000+0  11521-3 0  9991
2 65047  50.0011 285.0189 0000787 346.7882  13.2970 13.29340369 29300
HULIANWANG DIGUI-45     
1 65048U 25162F   26062.42230354 -.00000068  00000+0  12130-3 0  9992
2 65048  50.0041 285.0303 0001042  67.5575 292.5407 13.29332706 29295
HULIANWANG DIGUI-46     
1 65049U 25162G   26062.41394780 -.00000066  00000+0  12418-3 0  9993
2 65049  50.0059 285.0194 0001040  69.7228 290.3756 13.29332662 29294
HULIANWANG DIGUI-47     
1 65050U 25162H   26062.40559144 -.00000065  00000+0  12692-3 0  9994
2 65050  50.0024 284.9143 0001019  70.6975 289.4007 13.29332548 29297
HULIANWANG DIGUI-48     
1 65051U 25162J   26062.47243820 -.00000073  00000+0  10899-3 0  9999
2 65051  50.0034 284.6183 0001008  69.0812 291.0168 13.29332018 29301
